[{"OBJECT_NAME":"CUBESX-HSE 3 (RS42S)","OBJECT_ID":"2023-091N","EPOCH":"2026-03-09T22:57:25.321248","MEAN_MOTION":15.286147,"ECCENTRICITY":0.00127191,"INCLINATION":97.5203,"RA_OF_ASC_NODE":133.4295,"ARG_OF_PERICENTER":86.5376,"MEAN_ANOMALY":273.7318,"EPHEMERIS_TYPE":0,"CLASSIFICATION_TYPE":"U","NORAD_CAT_ID":57178,"ELEMENT_SET_NO":999,"REV_AT_EPOCH":14925,"BSTAR":0.00059055694,"MEAN_MOTION_DOT":0.00016417,"MEAN_MOTION_DDOT":0},{"OBJECT_NAME":"STARLINK-31826","OBJECT_ID":"2024-091R","EPOCH":"2026-03-09T16:39:52.758432","MEAN_MOTION":15.30197191,"ECCENTRICITY":0.00011019,"INCLINATION":53.161,"RA_OF_ASC_NODE":26.9672,"ARG_OF_PERICENTER":74.8938,"MEAN_ANOMALY":285.2185,"EPHEMERIS_TYPE":0,"CLASSIFICATION_TYPE":"U","NORAD_CAT_ID":59768,"ELEMENT_SET_NO":999,"REV_AT_EPOCH":10300,"BSTAR":-1.520888e-5,"MEAN_MOTION_DOT":-8.09e-6,"MEAN_MOTION_DDOT":0}]
